ORBCOMM FM33            
1 25983U 99065D   24197.19517898  .00002476  00000+0  85824-3 0  9995
2 25983  45.0271 158.7957 0006890 172.3009 187.7947 14.37942375287594
ORBCOMM FM36            
1 25984U 99065E   24197.12199479  .00001683  00000+0  62410-3 0  9995
2 25984  45.0387 245.7594 0002433 357.1213   2.9620 14.35862128286529
ORBCOMM FM35            
1 25985U 99065F   24197.18500711  .00001233  00000+0  47467-3 0  9993
2 25985  45.0391 248.3427 0003064 193.0648 167.0121 14.35366792286524
ORBCOMM FM34            
1 25986U 99065G   24196.87832583  .00001236  00000+0  47624-3 0  9992
2 25986  45.0386 250.3361 0001341 105.6620 254.4376 14.35343106286442
ORBCOMM FM38            
1 33060U 08031A   24196.88270628  .00003713  00000+0  53798-3 0  9995
2 33060  48.4401 118.9818 0005417  32.3338 327.7908 14.77959717864797
ORBCOMM FM41            
1 33061U 08031B   24196.88640771  .00003860  00000+0  56172-3 0  9998
2 33061  48.4434 125.7406 0004679  17.3173  54.6150 14.77684196864298
ORBCOMM FM39            
1 33063U 08031D   24196.87486768  .00003325  00000+0  50045-3 0  9992
2 33063  48.4395 154.8555 0007707 350.6237   9.4532 14.76574664863897
