<?xml version="1.0" encoding="UTF-8"?>
<ndm xmlns:xsi="http://www.w3.org/2001/XMLSchema-instance" xsi:noNamespaceSchemaLocation="https://sanaregistry.org/r/ndmxml_unqualified/ndmxml-2.0.0-master-2.0.xsd">
<omm id="CCSDS_OMM_VERS" version="2.0">
<header><CREATION_DATE/><ORIGINATOR/></header><body><segment><metadata><OBJECT_NAME>ORBCOMM FM33</OBJECT_NAME><OBJECT_ID>1999-065D</OBJECT_ID><CENTER_NAME>EARTH</CENTER_NAME><REF_FRAME>TEME</REF_FRAME><TIME_SYSTEM>UTC</TIME_SYSTEM><MEAN_ELEMENT_THEORY>SGP4</MEAN_ELEMENT_THEORY></metadata><data><meanElements><EPOCH>2024-07-15T04:41:03.463872</EPOCH><MEAN_MOTION>14.37942375</MEAN_MOTION><ECCENTRICITY>.000689</ECCENTRICITY><INCLINATION>45.0271</INCLINATION><RA_OF_ASC_NODE>158.7957</RA_OF_ASC_NODE><ARG_OF_PERICENTER>172.3009</ARG_OF_PERICENTER><MEAN_ANOMALY>187.7947</MEAN_ANOMALY></meanElements><tleParameters><EPHEMERIS_TYPE>0</EPHEMERIS_TYPE><CLASSIFICATION_TYPE>U</CLASSIFICATION_TYPE><NORAD_CAT_ID>25983</NORAD_CAT_ID><ELEMENT_SET_NO>999</ELEMENT_SET_NO><REV_AT_EPOCH>28759</REV_AT_EPOCH><BSTAR>.85824E-3</BSTAR><MEAN_MOTION_DOT>.2476E-4</MEAN_MOTION_DOT><MEAN_MOTION_DDOT>0</MEAN_MOTION_DDOT></tleParameters></data></segment></body></omm>
<omm id="CCSDS_OMM_VERS" version="2.0">
<header><CREATION_DATE/><ORIGINATOR/></header><body><segment><metadata><OBJECT_NAME>ORBCOMM FM36</OBJECT_NAME><OBJECT_ID>1999-065E</OBJECT_ID><CENTER_NAME>EARTH</CENTER_NAME><REF_FRAME>TEME</REF_FRAME><TIME_SYSTEM>UTC</TIME_SYSTEM><MEAN_ELEMENT_THEORY>SGP4</MEAN_ELEMENT_THEORY></metadata><data><meanElements><EPOCH>2024-07-15T02:55:40.349856</EPOCH><MEAN_MOTION>14.35862128</MEAN_MOTION><ECCENTRICITY>.0002433</ECCENTRICITY><INCLINATION>45.0387</INCLINATION><RA_OF_ASC_NODE>245.7594</RA_OF_ASC_NODE><ARG_OF_PERICENTER>357.1213</ARG_OF_PERICENTER><MEAN_ANOMALY>2.9620</MEAN_ANOMALY></meanElements><tleParameters><EPHEMERIS_TYPE>0</EPHEMERIS_TYPE><CLASSIFICATION_TYPE>U</CLASSIFICATION_TYPE><NORAD_CAT_ID>25984</NORAD_CAT_ID><ELEMENT_SET_NO>999</ELEMENT_SET_NO><REV_AT_EPOCH>28652</REV_AT_EPOCH><BSTAR>.6241E-3</BSTAR><MEAN_MOTION_DOT>.1683E-4</MEAN_MOTION_DOT><MEAN_MOTION_DDOT>0</MEAN_MOTION_DDOT></tleParameters></data></segment></body></omm>
<omm id="CCSDS_OMM_VERS" version="2.0">
<header><CREATION_DATE/><ORIGINATOR/></header><body><segment><metadata><OBJECT_NAME>ORBCOMM FM35</OBJECT_NAME><OBJECT_ID>1999-065F</OBJECT_ID><CENTER_NAME>EARTH</CENTER_NAME><REF_FRAME>TEME</REF_FRAME><TIME_SYSTEM>UTC</TIME_SYSTEM><MEAN_ELEMENT_THEORY>SGP4</MEAN_ELEMENT_THEORY></metadata><data><meanElements><EPOCH>2024-07-15T04:26:24.614304</EPOCH><MEAN_MOTION>14.35366792</MEAN_MOTION><ECCENTRICITY>.0003064</ECCENTRICITY><INCLINATION>45.0391</INCLINATION><RA_OF_ASC_NODE>248.3427</RA_OF_ASC_NODE><ARG_OF_PERICENTER>193.0648</ARG_OF_PERICENTER><MEAN_ANOMALY>167.0121</MEAN_ANOMALY></meanElements><tleParameters><EPHEMERIS_TYPE>0</EPHEMERIS_TYPE><CLASSIFICATION_TYPE>U</CLASSIFICATION_TYPE><NORAD_CAT_ID>25985</NORAD_CAT_ID><ELEMENT_SET_NO>999</ELEMENT_SET_NO><REV_AT_EPOCH>28652</REV_AT_EPOCH><BSTAR>.47467E-3</BSTAR><MEAN_MOTION_DOT>.1233E-4</MEAN_MOTION_DOT><MEAN_MOTION_DDOT>0</MEAN_MOTION_DDOT></tleParameters></data></segment></body></omm>
<omm id="CCSDS_OMM_VERS" version="2.0">
<header><CREATION_DATE/><ORIGINATOR/></header><body><segment><metadata><OBJECT_NAME>ORBCOMM FM34</OBJECT_NAME><OBJECT_ID>1999-065G</OBJECT_ID><CENTER_NAME>EARTH</CENTER_NAME><REF_FRAME>TEME</REF_FRAME><TIME_SYSTEM>UTC</TIME_SYSTEM><MEAN_ELEMENT_THEORY>SGP4</MEAN_ELEMENT_THEORY></metadata><data><meanElements><EPOCH>2024-07-14T21:04:47.351712</EPOCH><MEAN_MOTION>14.35343106</MEAN_MOTION><ECCENTRICITY>.0001341</ECCENTRICITY><INCLINATION>45.0386</INCLINATION><RA_OF_ASC_NODE>250.3361</RA_OF_ASC_NODE><ARG_OF_PERICENTER>105.6620</ARG_OF_PERICENTER><MEAN_ANOMALY>254.4376</MEAN_ANOMALY></meanElements><tleParameters><EPHEMERIS_TYPE>0</EPHEMERIS_TYPE><CLASSIFICATION_TYPE>U</CLASSIFICATION_TYPE><NORAD_CAT_ID>25986</NORAD_CAT_ID><ELEMENT_SET_NO>999</ELEMENT_SET_NO><REV_AT_EPOCH>28644</REV_AT_EPOCH><BSTAR>.47624E-3</BSTAR><MEAN_MOTION_DOT>.1236E-4</MEAN_MOTION_DOT><MEAN_MOTION_DDOT>0</MEAN_MOTION_DDOT></tleParameters></data></segment></body></omm>
<omm id="CCSDS_OMM_VERS" version="2.0">
<header><CREATION_DATE/><ORIGINATOR/></header><body><segment><metadata><OBJECT_NAME>ORBCOMM FM38</OBJECT_NAME><OBJECT_ID>2008-031A</OBJECT_ID><CENTER_NAME>EARTH</CENTER_NAME><REF_FRAME>TEME</REF_FRAME><TIME_SYSTEM>UTC</TIME_SYSTEM><MEAN_ELEMENT_THEORY>SGP4</MEAN_ELEMENT_THEORY></metadata><data><meanElements><EPOCH>2024-07-14T21:11:05.822592</EPOCH><MEAN_MOTION>14.77959717</MEAN_MOTION><ECCENTRICITY>.0005417</ECCENTRICITY><INCLINATION>48.4401</INCLINATION><RA_OF_ASC_NODE>118.9818</RA_OF_ASC_NODE><ARG_OF_PERICENTER>32.3338</ARG_OF_PERICENTER><MEAN_ANOMALY>327.7908</MEAN_ANOMALY></meanElements><tleParameters><EPHEMERIS_TYPE>0</EPHEMERIS_TYPE><CLASSIFICATION_TYPE>U</CLASSIFICATION_TYPE><NORAD_CAT_ID>33060</NORAD_CAT_ID><ELEMENT_SET_NO>999</ELEMENT_SET_NO><REV_AT_EPOCH>86479</REV_AT_EPOCH><BSTAR>.53798E-3</BSTAR><MEAN_MOTION_DOT>.3713E-4</MEAN_MOTION_DOT><MEAN_MOTION_DDOT>0</MEAN_MOTION_DDOT></tleParameters></data></segment></body></omm>
<omm id="CCSDS_OMM_VERS" version="2.0">
<header><CREATION_DATE/><ORIGINATOR/></header><body><segment><metadata><OBJECT_NAME>ORBCOMM FM41</OBJECT_NAME><OBJECT_ID>2008-031B</OBJECT_ID><CENTER_NAME>EARTH</CENTER_NAME><REF_FRAME>TEME</REF_FRAME><TIME_SYSTEM>UTC</TIME_SYSTEM><MEAN_ELEMENT_THEORY>SGP4</MEAN_ELEMENT_THEORY></metadata><data><meanElements><EPOCH>2024-07-14T21:16:25.626144</EPOCH><MEAN_MOTION>14.77684196</MEAN_MOTION><ECCENTRICITY>.0004679</ECCENTRICITY><INCLINATION>48.4434</INCLINATION><RA_OF_ASC_NODE>125.7406</RA_OF_ASC_NODE><ARG_OF_PERICENTER>17.3173</ARG_OF_PERICENTER><MEAN_ANOMALY>54.6150</MEAN_ANOMALY></meanElements><tleParameters><EPHEMERIS_TYPE>0</EPHEMERIS_TYPE><CLASSIFICATION_TYPE>U</CLASSIFICATION_TYPE><NORAD_CAT_ID>33061</NORAD_CAT_ID><ELEMENT_SET_NO>999</ELEMENT_SET_NO><REV_AT_EPOCH>86429</REV_AT_EPOCH><BSTAR>.56172E-3</BSTAR><MEAN_MOTION_DOT>.386E-4</MEAN_MOTION_DOT><MEAN_MOTION_DDOT>0</MEAN_MOTION_DDOT></tleParameters></data></segment></body></omm>
<omm id="CCSDS_OMM_VERS" version="2.0">
<header><CREATION_DATE/><ORIGINATOR/></header><body><segment><metadata><OBJECT_NAME>ORBCOMM FM39</OBJECT_NAME><OBJECT_ID>2008-031D</OBJECT_ID><CENTER_NAME>EARTH</CENTER_NAME><REF_FRAME>TEME</REF_FRAME><TIME_SYSTEM>UTC</TIME_SYSTEM><MEAN_ELEMENT_THEORY>SGP4</MEAN_ELEMENT_THEORY></metadata><data><meanElements><EPOCH>2024-07-14T20:59:48.567552</EPOCH><MEAN_MOTION>14.76574664</MEAN_MOTION><ECCENTRICITY>.0007707</ECCENTRICITY><INCLINATION>48.4395</INCLINATION><RA_OF_ASC_NODE>154.8555</RA_OF_ASC_NODE><ARG_OF_PERICENTER>350.6237</ARG_OF_PERICENTER><MEAN_ANOMALY>9.4532</MEAN_ANOMALY></meanElements><tleParameters><EPHEMERIS_TYPE>0</EPHEMERIS_TYPE><CLASSIFICATION_TYPE>U</CLASSIFICATION_TYPE><NORAD_CAT_ID>33063</NORAD_CAT_ID><ELEMENT_SET_NO>999</ELEMENT_SET_NO><REV_AT_EPOCH>86389</REV_AT_EPOCH><BSTAR>.50045E-3</BSTAR><MEAN_MOTION_DOT>.3325E-4</MEAN_MOTION_DOT><MEAN_MOTION_DDOT>0</MEAN_MOTION_DDOT></tleParameters></data></segment></body></omm>

</ndm>
